OBJECT B                
1 51825U 22019B   24084.92658058  .00046610  00000+0  21803-2 0  9998
2 51825  97.4365 157.4220 0015704 169.7331 190.4227 15.19492960114428
